IONOSFERA-M 2           
1 61736U 24199B   26066.60665513  .00000079  00000+0  54853-4 0  9994
2 61736  98.7327 300.6808 0000238 107.7197 252.4007 14.22737330116382
BIOMASS                 
1 63772U 25090A   26066.50731320  .00000548  00000+0  10513-3 0  9991
2 63772  98.0747 255.2871 0001109  94.2078 265.9253 14.67535000 45779
GOSAT-GW (IBUKI GW)     
1 64694U 25141A   26065.03170329  .00001220  00000+0  22342-3 0  9996
2 64694  98.0502   4.0681 0001432  83.7124 276.4243 14.67568283 36714
IONOSFERA-M 3           
1 64876U 25155A   26066.60380698  .00000105  00000+0  67404-4 0  9999
2 64876  98.5921  31.1276 0002050 121.0618 239.0761 14.21465885 31975
IONOSFERA-M 4           
1 64877U 25155B   26066.63878903  .00000120  00000+0  74346-4 0  9994
2 64877  98.5916  31.0801 0001640 105.3706 254.7653 14.21467642 31977
MICROCARB               
1 64899U 25156A   26066.47645717  .00000956  00000+0  15927-3 0  9992
2 64899  97.9890 145.4169 0015411 234.8266 125.1499 14.72198803 33003
CO3D 3                  
1 64900U 25156B   26066.62307672  .00007556  00000+0  35178-3 0  9990
2 64900  97.4331 146.7742 0001560 144.7946 215.3393 15.20202825 34107
CO3D 4                  
1 64901U 25156C   26061.29158243  .00001237  00000+0  60250-4 0  9997
2 64901  97.4334 141.5187 0000254 280.3117  79.8089 15.20203154 33293
CO3D 2                  
1 64902U 25156D   26066.65570686  .00008642  00000+0  40172-3 0  9999
2 64902  97.4325 146.7048 0001387 123.2932 236.8436 15.20212502 34104
CO3D 1                  
1 64903U 25156E   26066.65585941  .00003580  00000+0  16841-3 0  9992
2 64903  97.4328 146.7050 0001303 131.1037 229.0311 15.20199263 34107
SENTINEL-6B             
1 66514U 25264A   26066.19675767 -.00000042  00000+0  83935-4 0  9997
2 66514  66.0448 347.0155 0007969 270.7181  89.2921 12.80929396 14100
CSG-3                   
1 67304U 26001A   26066.59566250  .00000665  00000+0  90081-4 0  9995
2 67304  97.8864 251.6635 0001448  87.2777 272.8602 14.82146844  9410
