[{"OBJECT_NAME":"IONOSFERA-M 2","OBJECT_ID":"2024-199B","EPOCH":"2026-03-07T14:33:35.003232","MEAN_MOTION":14.2273733,"ECCENTRICITY":2.381e-5,"INCLINATION":98.7327,"RA_OF_ASC_NODE":300.6808,"ARG_OF_PERICENTER":107.7197,"MEAN_ANOMALY":252.4007,"EPHEMERIS_TYPE":0,"CLASSIFICATION_TYPE":"U","NORAD_CAT_ID":61736,"ELEMENT_SET_NO":999,"REV_AT_EPOCH":11638,"BSTAR":5.4853081e-5,"MEAN_MOTION_DOT":7.9e-7,"MEAN_MOTION_DDOT":0},{"OBJECT_NAME":"BIOMASS","OBJECT_ID":"2025-090A","EPOCH":"2026-03-07T12:10:31.860480","MEAN_MOTION":14.67535,"ECCENTRICITY":0.00011091,"INCLINATION":98.0747,"RA_OF_ASC_NODE":255.2871,"ARG_OF_PERICENTER":94.2078,"MEAN_ANOMALY":265.9253,"EPHEMERIS_TYPE":0,"CLASSIFICATION_TYPE":"U","NORAD_CAT_ID":63772,"ELEMENT_SET_NO":999,"REV_AT_EPOCH":4577,"BSTAR":0.00010513164,"MEAN_MOTION_DOT":5.48e-6,"MEAN_MOTION_DDOT":0},{"OBJECT_NAME":"GOSAT-GW (IBUKI GW)","OBJECT_ID":"2025-141A","EPOCH":"2026-03-06T00:45:39.164256","MEAN_MOTION":14.67568283,"ECCENTRICITY":0.00014327,"INCLINATION":98.0502,"RA_OF_ASC_NODE":4.0681,"ARG_OF_PERICENTER":83.7124,"MEAN_ANOMALY":276.4243,"EPHEMERIS_TYPE":0,"CLASSIFICATION_TYPE":"U","NORAD_CAT_ID":64694,"ELEMENT_SET_NO":999,"REV_AT_EPOCH":3671,"BSTAR":0.00022341843,"MEAN_MOTION_DOT":1.22e-5,"MEAN_MOTION_DDOT":0},{"OBJECT_NAME":"IONOSFERA-M 3","OBJECT_ID":"2025-155A","EPOCH":"2026-03-07T14:29:28.923072","MEAN_MOTION":14.21465885,"ECCENTRICITY":0.00020505,"INCLINATION":98.5921,"RA_OF_ASC_NODE":31.1276,"ARG_OF_PERICENTER":121.0618,"MEAN_ANOMALY":239.0761,"EPHEMERIS_TYPE":0,"CLASSIFICATION_TYPE":"U","NORAD_CAT_ID":64876,"ELEMENT_SET_NO":999,"REV_AT_EPOCH":3197,"BSTAR":6.7404198e-5,"MEAN_MOTION_DOT":1.05e-6,"MEAN_MOTION_DDOT":0},{"OBJECT_NAME":"IONOSFERA-M 4","OBJECT_ID":"2025-155B","EPOCH":"2026-03-07T15:19:51.372192","MEAN_MOTION":14.21467642,"ECCENTRICITY":0.00016407,"INCLINATION":98.5916,"RA_OF_ASC_NODE":31.0801,"ARG_OF_PERICENTER":105.3706,"MEAN_ANOMALY":254.7653,"EPHEMERIS_TYPE":0,"CLASSIFICATION_TYPE":"U","NORAD_CAT_ID":64877,"ELEMENT_SET_NO":999,"REV_AT_EPOCH":3197,"BSTAR":7.4346454e-5,"MEAN_MOTION_DOT":1.2e-6,"MEAN_MOTION_DDOT":0},{"OBJECT_NAME":"MICROCARB","OBJECT_ID":"2025-156A","EPOCH":"2026-03-07T11:26:05.899488","MEAN_MOTION":14.72198803,"ECCENTRICITY":0.00154111,"INCLINATION":97.989,"RA_OF_ASC_NODE":145.4169,"ARG_OF_PERICENTER":234.8266,"MEAN_ANOMALY":125.1499,"EPHEMERIS_TYPE":0,"CLASSIFICATION_TYPE":"U","NORAD_CAT_ID":64899,"ELEMENT_SET_NO":999,"REV_AT_EPOCH":3300,"BSTAR":0.00015927222,"MEAN_MOTION_DOT":9.56e-6,"MEAN_MOTION_DDOT":0},{"OBJECT_NAME":"CO3D 3","OBJECT_ID":"2025-156B","EPOCH":"2026-03-07T14:57:13.828608","MEAN_MOTION":15.20202825,"ECCENTRICITY":0.000156,"INCLINATION":97.4331,"RA_OF_ASC_NODE":146.7742,"ARG_OF_PERICENTER":144.7946,"MEAN_ANOMALY":215.3393,"EPHEMERIS_TYPE":0,"CLASSIFICATION_TYPE":"U","NORAD_CAT_ID":64900,"ELEMENT_SET_NO":999,"REV_AT_EPOCH":3410,"BSTAR":0.00035178317,"MEAN_MOTION_DOT":7.556e-5,"MEAN_MOTION_DDOT":0},{"OBJECT_NAME":"CO3D 4","OBJECT_ID":"2025-156C","EPOCH":"2026-03-02T06:59:52.721952","MEAN_MOTION":15.20203154,"ECCENTRICITY":2.545e-5,"INCLINATION":97.4334,"RA_OF_ASC_NODE":141.5187,"ARG_OF_PERICENTER":280.3117,"MEAN_ANOMALY":79.8089,"EPHEMERIS_TYPE":0,"CLASSIFICATION_TYPE":"U","NORAD_CAT_ID":64901,"ELEMENT_SET_NO":999,"REV_AT_EPOCH":3329,"BSTAR":6.0250155e-5,"MEAN_MOTION_DOT":1.237e-5,"MEAN_MOTION_DDOT":0},{"OBJECT_NAME":"CO3D 2","OBJECT_ID":"2025-156D","EPOCH":"2026-03-07T15:44:13.072704","MEAN_MOTION":15.20212502,"ECCENTRICITY":0.00013875,"INCLINATION":97.4325,"RA_OF_ASC_NODE":146.7048,"ARG_OF_PERICENTER":123.2932,"MEAN_ANOMALY":236.8436,"EPHEMERIS_TYPE":0,"CLASSIFICATION_TYPE":"U","NORAD_CAT_ID":64902,"ELEMENT_SET_NO":999,"REV_AT_EPOCH":3410,"BSTAR":0.00040172281,"MEAN_MOTION_DOT":8.642e-5,"MEAN_MOTION_DDOT":0},{"OBJECT_NAME":"CO3D 1","OBJECT_ID":"2025-156E","EPOCH":"2026-03-07T15:44:26.253024","MEAN_MOTION":15.20199263,"ECCENTRICITY":0.00013035,"INCLINATION":97.4328,"RA_OF_ASC_NODE":146.705,"ARG_OF_PERICENTER":131.1037,"MEAN_ANOMALY":229.0311,"EPHEMERIS_TYPE":0,"CLASSIFICATION_TYPE":"U","NORAD_CAT_ID":64903,"ELEMENT_SET_NO":999,"REV_AT_EPOCH":3410,"BSTAR":0.00016841475,"MEAN_MOTION_DOT":3.58e-5,"MEAN_MOTION_DDOT":0},{"OBJECT_NAME":"SENTINEL-6B","OBJECT_ID":"2025-264A","EPOCH":"2026-03-07T04:43:19.862688","MEAN_MOTION":12.80929396,"ECCENTRICITY":0.0007969,"INCLINATION":66.0448,"RA_OF_ASC_NODE":347.0155,"ARG_OF_PERICENTER":270.7181,"MEAN_ANOMALY":89.2921,"EPHEMERIS_TYPE":0,"CLASSIFICATION_TYPE":"U","NORAD_CAT_ID":66514,"ELEMENT_SET_NO":999,"REV_AT_EPOCH":1410,"BSTAR":8.3935e-5,"MEAN_MOTION_DOT":-4.2e-7,"MEAN_MOTION_DDOT":0},{"OBJECT_NAME":"CSG-3","OBJECT_ID":"2026-001A","EPOCH":"2026-03-07T14:17:45.240000","MEAN_MOTION":14.82146844,"ECCENTRICITY":0.00014484,"INCLINATION":97.8864,"RA_OF_ASC_NODE":251.6635,"ARG_OF_PERICENTER":87.2777,"MEAN_ANOMALY":272.8602,"EPHEMERIS_TYPE":0,"CLASSIFICATION_TYPE":"U","NORAD_CAT_ID":67304,"ELEMENT_SET_NO":999,"REV_AT_EPOCH":941,"BSTAR":9.0080746e-5,"MEAN_MOTION_DOT":6.65e-6,"MEAN_MOTION_DDOT":0}]
